STARLINK-37066          
1 68081U 26042N   26086.09495172  .00276166  00000+0  17439-2 0  9999
2 68081  53.1599 107.7041 0000767  67.4079 292.7022 15.75285764  4839
STARLINK-37054          
1 68082U 26042P   26086.07182472  .00397224  00000+0  19075-2 0  9991
2 68082  53.1572 107.5510 0002235 119.7022 240.4224 15.81071625  4831
STARLINK-37065          
1 68083U 26042Q   26085.52847873  .00260727  00000+0  16493-2 0  9992
2 68083  53.1587 110.5712 0001464 112.0840 248.0336 15.75291724  4748
STARLINK-37037          
1 68084U 26042R   26086.16670139 -.00087846  00000+0 -57401-3 0  9999
2 68084  53.1592 107.1887 0001119 103.0628  21.4138 15.75272382  4866
STARLINK-37068          
1 68085U 26042S   26086.06965600  .00633985  00000+0  29580-2 0  9994
2 68085  53.1572 107.5355 0005743 168.8476 191.2675 15.81074936  4837
STARLINK-37067          
1 68086U 26042T   26085.56307168  .00357120  00000+0  17303-2 0  9992
2 68086  53.1574 110.0643 0001511 137.7506 222.3633 15.80983727  4754
STARLINK-37062          
1 68087U 26042U   26086.06807433  .00501650  00000+0  23688-2 0  9991
2 68087  53.1577 107.5247 0000796 109.8748 250.2360 15.81159785  4837
STARLINK-37059          
1 68088U 26042V   26086.06732463  .00619779  00000+0  28692-2 0  9994
2 68088  53.1569 107.5201 0003535 138.9007 221.2283 15.81286481  4830
STARLINK-37004          
1 68089U 26042W   26086.16670139 -.01071561  00000+0 -75132-2 0  9992
2 68089  53.1596 107.0303 0001129  85.0121 116.2925 15.76016325  4866
STARLINK-36320          
1 68090U 26042X   26086.15385821  .00375248  00000+0  23254-2 0  9998
2 68090  53.1593 107.3571 0002763 139.4735 220.6491 15.75432358  4848
STARLINK-36324          
1 68091U 26042Y   26086.03183896  .00379567  00000+0  23471-2 0  9993
2 68091  53.1589 108.0203 0004016  83.8682 276.2796 15.75467635  4829
STARLINK-36896          
1 68092U 26042Z   26086.21276383  .00317395  00000+0  19952-2 0  9998
2 68092  53.1598 107.0117 0002407 145.6414 214.4762 15.75270066  4844
