CCSDS_OMM_VERS = 2.0
CREATION_DATE  = 
ORIGINATOR     = 

OBJECT_NAME    = STARLINK-37066
OBJECT_ID      = 2026-042N
CENTER_NAME    = EARTH
REF_FRAME      = TEME
TIME_SYSTEM    = UTC
MEAN_ELEMENT_THEORY = SGP/SGP4

EPOCH          = 2026-03-27T02:16:43.828608
MEAN_MOTION    = 15.75285764
ECCENTRICITY   = .0000767
INCLINATION    = 53.1599
RA_OF_ASC_NODE = 107.7041
ARG_OF_PERICENTER = 67.4079
MEAN_ANOMALY   = 292.7022

EPHEMERIS_TYPE = 0
CLASSIFICATION_TYPE = U
NORAD_CAT_ID   = 68081
ELEMENT_SET_NO = 999
REV_AT_EPOCH   = 483
BSTAR          = .17439E-2
MEAN_MOTION_DOT = .276166E-2
MEAN_MOTION_DDOT = 0

CCSDS_OMM_VERS = 2.0
CREATION_DATE  = 
ORIGINATOR     = 

OBJECT_NAME    = STARLINK-37054
OBJECT_ID      = 2026-042P
CENTER_NAME    = EARTH
REF_FRAME      = TEME
TIME_SYSTEM    = UTC
MEAN_ELEMENT_THEORY = SGP/SGP4

EPOCH          = 2026-03-27T01:43:25.655808
MEAN_MOTION    = 15.81071625
ECCENTRICITY   = .0002235
INCLINATION    = 53.1572
RA_OF_ASC_NODE = 107.5510
ARG_OF_PERICENTER = 119.7022
MEAN_ANOMALY   = 240.4224

EPHEMERIS_TYPE = 0
CLASSIFICATION_TYPE = U
NORAD_CAT_ID   = 68082
ELEMENT_SET_NO = 999
REV_AT_EPOCH   = 483
BSTAR          = .19075E-2
MEAN_MOTION_DOT = .397224E-2
MEAN_MOTION_DDOT = 0

CCSDS_OMM_VERS = 2.0
CREATION_DATE  = 
ORIGINATOR     = 

OBJECT_NAME    = STARLINK-37065
OBJECT_ID      = 2026-042Q
CENTER_NAME    = EARTH
REF_FRAME      = TEME
TIME_SYSTEM    = UTC
MEAN_ELEMENT_THEORY = SGP/SGP4

EPOCH          = 2026-03-26T12:41:00.562272
MEAN_MOTION    = 15.75291724
ECCENTRICITY   = .00014648
INCLINATION    = 53.1587
RA_OF_ASC_NODE = 110.5712
ARG_OF_PERICENTER = 112.0840
MEAN_ANOMALY   = 248.0336

EPHEMERIS_TYPE = 0
CLASSIFICATION_TYPE = U
NORAD_CAT_ID   = 68083
ELEMENT_SET_NO = 999
REV_AT_EPOCH   = 474
BSTAR          = .16493159E-2
MEAN_MOTION_DOT = .260727E-2
MEAN_MOTION_DDOT = 0

CCSDS_OMM_VERS = 2.0
CREATION_DATE  = 
ORIGINATOR     = 

OBJECT_NAME    = STARLINK-37037
OBJECT_ID      = 2026-042R
CENTER_NAME    = EARTH
REF_FRAME      = TEME
TIME_SYSTEM    = UTC
MEAN_ELEMENT_THEORY = SGP/SGP4

EPOCH          = 2026-03-27T04:00:03.000096
MEAN_MOTION    = 15.75272382
ECCENTRICITY   = .0001119
INCLINATION    = 53.1592
RA_OF_ASC_NODE = 107.1887
ARG_OF_PERICENTER = 103.0628
MEAN_ANOMALY   = 21.4138

EPHEMERIS_TYPE = 0
CLASSIFICATION_TYPE = U
NORAD_CAT_ID   = 68084
ELEMENT_SET_NO = 999
REV_AT_EPOCH   = 486
BSTAR          = -.57401E-3
MEAN_MOTION_DOT = -.87846E-3
MEAN_MOTION_DDOT = 0

CCSDS_OMM_VERS = 2.0
CREATION_DATE  = 
ORIGINATOR     = 

OBJECT_NAME    = STARLINK-37068
OBJECT_ID      = 2026-042S
CENTER_NAME    = EARTH
REF_FRAME      = TEME
TIME_SYSTEM    = UTC
MEAN_ELEMENT_THEORY = SGP/SGP4

EPOCH          = 2026-03-27T01:40:18.278400
MEAN_MOTION    = 15.81074936
ECCENTRICITY   = .0005743
INCLINATION    = 53.1572
RA_OF_ASC_NODE = 107.5355
ARG_OF_PERICENTER = 168.8476
MEAN_ANOMALY   = 191.2675

EPHEMERIS_TYPE = 0
CLASSIFICATION_TYPE = U
NORAD_CAT_ID   = 68085
ELEMENT_SET_NO = 999
REV_AT_EPOCH   = 483
BSTAR          = .2958E-2
MEAN_MOTION_DOT = .633985E-2
MEAN_MOTION_DDOT = 0

CCSDS_OMM_VERS = 2.0
CREATION_DATE  = 
ORIGINATOR     = 

OBJECT_NAME    = STARLINK-37067
OBJECT_ID      = 2026-042T
CENTER_NAME    = EARTH
REF_FRAME      = TEME
TIME_SYSTEM    = UTC
MEAN_ELEMENT_THEORY = SGP/SGP4

EPOCH          = 2026-03-26T13:30:49.393152
MEAN_MOTION    = 15.80983727
ECCENTRICITY   = .00015113
INCLINATION    = 53.1574
RA_OF_ASC_NODE = 110.0643
ARG_OF_PERICENTER = 137.7506
MEAN_ANOMALY   = 222.3633

EPHEMERIS_TYPE = 0
CLASSIFICATION_TYPE = U
NORAD_CAT_ID   = 68086
ELEMENT_SET_NO = 999
REV_AT_EPOCH   = 475
BSTAR          = .17302649E-2
MEAN_MOTION_DOT = .35712E-2
MEAN_MOTION_DDOT = 0

CCSDS_OMM_VERS = 2.0
CREATION_DATE  = 
ORIGINATOR     = 

OBJECT_NAME    = STARLINK-37062
OBJECT_ID      = 2026-042U
CENTER_NAME    = EARTH
REF_FRAME      = TEME
TIME_SYSTEM    = UTC
MEAN_ELEMENT_THEORY = SGP/SGP4

EPOCH          = 2026-03-27T01:38:01.622112
MEAN_MOTION    = 15.81159785
ECCENTRICITY   = .0000796
INCLINATION    = 53.1577
RA_OF_ASC_NODE = 107.5247
ARG_OF_PERICENTER = 109.8748
MEAN_ANOMALY   = 250.2360

EPHEMERIS_TYPE = 0
CLASSIFICATION_TYPE = U
NORAD_CAT_ID   = 68087
ELEMENT_SET_NO = 999
REV_AT_EPOCH   = 483
BSTAR          = .23688E-2
MEAN_MOTION_DOT = .50165E-2
MEAN_MOTION_DDOT = 0

CCSDS_OMM_VERS = 2.0
CREATION_DATE  = 
ORIGINATOR     = 

OBJECT_NAME    = STARLINK-37059
OBJECT_ID      = 2026-042V
CENTER_NAME    = EARTH
REF_FRAME      = TEME
TIME_SYSTEM    = UTC
MEAN_ELEMENT_THEORY = SGP/SGP4

EPOCH          = 2026-03-27T01:36:56.848032
MEAN_MOTION    = 15.81286481
ECCENTRICITY   = .0003535
INCLINATION    = 53.1569
RA_OF_ASC_NODE = 107.5201
ARG_OF_PERICENTER = 138.9007
MEAN_ANOMALY   = 221.2283

EPHEMERIS_TYPE = 0
CLASSIFICATION_TYPE = U
NORAD_CAT_ID   = 68088
ELEMENT_SET_NO = 999
REV_AT_EPOCH   = 483
BSTAR          = .28692E-2
MEAN_MOTION_DOT = .619779E-2
MEAN_MOTION_DDOT = 0

CCSDS_OMM_VERS = 2.0
CREATION_DATE  = 
ORIGINATOR     = 

OBJECT_NAME    = STARLINK-37004
OBJECT_ID      = 2026-042W
CENTER_NAME    = EARTH
REF_FRAME      = TEME
TIME_SYSTEM    = UTC
MEAN_ELEMENT_THEORY = SGP/SGP4

EPOCH          = 2026-03-27T04:00:03.000096
MEAN_MOTION    = 15.76016325
ECCENTRICITY   = .0001129
INCLINATION    = 53.1596
RA_OF_ASC_NODE = 107.0303
ARG_OF_PERICENTER = 85.0121
MEAN_ANOMALY   = 116.2925

EPHEMERIS_TYPE = 0
CLASSIFICATION_TYPE = U
NORAD_CAT_ID   = 68089
ELEMENT_SET_NO = 999
REV_AT_EPOCH   = 486
BSTAR          = -.75132E-2
MEAN_MOTION_DOT = -.1071561E-1
MEAN_MOTION_DDOT = 0

CCSDS_OMM_VERS = 2.0
CREATION_DATE  = 
ORIGINATOR     = 

OBJECT_NAME    = STARLINK-36320
OBJECT_ID      = 2026-042X
CENTER_NAME    = EARTH
REF_FRAME      = TEME
TIME_SYSTEM    = UTC
MEAN_ELEMENT_THEORY = SGP/SGP4

EPOCH          = 2026-03-27T03:41:33.349344
MEAN_MOTION    = 15.75432358
ECCENTRICITY   = .0002763
INCLINATION    = 53.1593
RA_OF_ASC_NODE = 107.3571
ARG_OF_PERICENTER = 139.4735
MEAN_ANOMALY   = 220.6491

EPHEMERIS_TYPE = 0
CLASSIFICATION_TYPE = U
NORAD_CAT_ID   = 68090
ELEMENT_SET_NO = 999
REV_AT_EPOCH   = 484
BSTAR          = .23254E-2
MEAN_MOTION_DOT = .375248E-2
MEAN_MOTION_DDOT = 0

CCSDS_OMM_VERS = 2.0
CREATION_DATE  = 
ORIGINATOR     = 

OBJECT_NAME    = STARLINK-36324
OBJECT_ID      = 2026-042Y
CENTER_NAME    = EARTH
REF_FRAME      = TEME
TIME_SYSTEM    = UTC
MEAN_ELEMENT_THEORY = SGP/SGP4

EPOCH          = 2026-03-27T00:45:50.886144
MEAN_MOTION    = 15.75467635
ECCENTRICITY   = .0004016
INCLINATION    = 53.1589
RA_OF_ASC_NODE = 108.0203
ARG_OF_PERICENTER = 83.8682
MEAN_ANOMALY   = 276.2796

EPHEMERIS_TYPE = 0
CLASSIFICATION_TYPE = U
NORAD_CAT_ID   = 68091
ELEMENT_SET_NO = 999
REV_AT_EPOCH   = 482
BSTAR          = .23471E-2
MEAN_MOTION_DOT = .379567E-2
MEAN_MOTION_DDOT = 0

CCSDS_OMM_VERS = 2.0
CREATION_DATE  = 
ORIGINATOR     = 

OBJECT_NAME    = STARLINK-36896
OBJECT_ID      = 2026-042Z
CENTER_NAME    = EARTH
REF_FRAME      = TEME
TIME_SYSTEM    = UTC
MEAN_ELEMENT_THEORY = SGP/SGP4

EPOCH          = 2026-03-27T05:06:22.794912
MEAN_MOTION    = 15.75270066
ECCENTRICITY   = .0002407
INCLINATION    = 53.1598
RA_OF_ASC_NODE = 107.0117
ARG_OF_PERICENTER = 145.6414
MEAN_ANOMALY   = 214.4762

EPHEMERIS_TYPE = 0
CLASSIFICATION_TYPE = U
NORAD_CAT_ID   = 68092
ELEMENT_SET_NO = 999
REV_AT_EPOCH   = 484
BSTAR          = .19952E-2
MEAN_MOTION_DOT = .317395E-2
MEAN_MOTION_DDOT = 0

